IRIDIUM 171             
1 43929U 19002H   24118.80043554  .00000165  00000+0  51958-4 0  9997
2 43929  86.3954 319.9459 0001917  89.3381 270.8034 14.34215449277102
IRIDIUM 170             
1 43930U 19002J   24118.82791244  .00000816  00000+0  12555-3 0  9999
2 43930  86.6070 319.7626 0002327  86.2391 273.9093 14.72232574284447
IRIDIUM 181             
1 56726U 23068S   24118.78341133  .00000935  00000+0  27019-3 0  9999
2 56726  86.8682  11.0110 0002060  82.9555 277.1880 14.43600676 49869
IRIDIUM 177             
1 56727U 23068T   24118.86204649  .00002861  00000+0  37315-3 0  9999
2 56727  86.1977 339.2667 0002012  94.6677 265.4774 14.80209888 50937
IRIDIUM 174             
1 56728U 23068U   24118.85660653  .00003072  00000+0  40072-3 0  9999
2 56728  86.1986 339.3690 0002695  84.9427 275.2102 14.80235001 50937
IRIDIUM 178             
1 56729U 23068V   24118.91880614  .00003308  00000+0  43212-3 0  9999
2 56729  86.5807 354.4146 0003127  86.1517 274.0062 14.80209782 50943
